GLOBALSTAR M067         
1 32263U 07048A   25055.15212872 -.00000041  00000+0  41952-3 0  9999
2 32263  51.9757   6.6810 0001292  91.3165  16.0312 12.40666950795690
GLOBALSTAR M070         
1 32264U 07048B   25054.93083178 -.00000076  00000+0  15645-3 0  9998
2 32264  51.9742 113.5278 0000544 145.3327  26.2393 12.62312584799365
GLOBALSTAR M066         
1 32265U 07048C   25054.82070979 -.00000098  00000+0 -11155-4 0  9990
2 32265  51.9699 353.8221 0000746   7.7542   9.3499 12.37190708801297
GLOBALSTAR M068         
1 32266U 07048D   25054.95713644 -.00000049  00000+0  30669-3 0  9993
2 32266  51.9882 287.4216 0000170 187.2237 186.6219 12.62816006803255
GLOBALSTAR M079         
1 37188U 10054A   25054.96801993 -.00000094  00000+0  56316-4 0  9996
2 37188  52.0032 124.4449 0000709  94.7095  76.1967 12.62271178662837
GLOBALSTAR M074         
1 37189U 10054B   25054.91542427 -.00000092  00000+0  63975-4 0  9993
2 37189  52.0009 123.9460 0000753 126.1617  44.7807 12.62266642662821
GLOBALSTAR M076         
1 37190U 10054C   25054.94128226 -.00000096  00000+0  44218-4 0  9998
2 37190  52.0023 124.0243 0000959 110.0743  60.8264 12.62277936662475
GLOBALSTAR M077         
1 37191U 10054D   25054.84939885 -.00000094  00000+0  55426-4 0  9990
2 37191  52.0067  81.1300 0000437 115.5996  55.4077 12.62271161662838
